OBJECT_NAME,OBJECT_ID,EPOCH,MEAN_MOTION,ECCENTRICITY,INCLINATION,RA_OF_ASC_NODE,ARG_OF_PERICENTER,MEAN_ANOMALY,EPHEMERIS_TYPE,CLASSIFICATION_TYPE,NORAD_CAT_ID,ELEMENT_SET_NO,REV_AT_EPOCH,BSTAR,MEAN_MOTION_DOT,MEAN_MOTION_DDOT
KUZGTU 1 (RS47S),2023-091AV,2026-07-13T20:18:01.949760,15.30451428,.0010198,97.5055,259.6059,11.1243,349.0221,0,U,57217,999,16845,.24786E-3,.7231E-4,0
SONATE-2,2024-043Q,2026-07-13T09:04:39.596448,15.60724269,.00069497,97.5541,346.4234,111.8848,248.3148,0,U,59112,999,13197,.33131433E-3,.27473E-3,0
MESAT1,2024-125G,2026-07-13T20:06:39.097728,15.66306567,.0011058,97.2249,52.9825,116.9698,243.2693,0,U,60209,999,11373,.4385E-3,.45479E-3,0
OOV-CUBE (TUBSAT-30),2024-128F,2026-07-13T09:41:52.285632,15.02869569,.00413557,61.9937,134.1487,139.6220,220.7954,0,U,60240,999,11005,.94341179E-4,.1077E-4,0
COLIBRI-S (RS67S),2024-199M,2026-07-13T19:39:08.351424,15.48811104,.0008829,97.2957,68.9315,166.9062,193.2420,0,U,61746,999,14153,.25864E-3,.13836E-3,0
HORS 3 (RS81S),2024-199U,2026-07-13T20:15:15.324768,15.56837831,.0007009,97.2938,71.2466,159.9231,200.2301,0,U,61753,999,14170,.33466E-3,.23962E-3,0
HORS 4 (RS82S),2024-199V,2026-07-13T20:18:40.372704,15.62286650,.0006881,97.2882,72.6365,152.1807,207.9821,0,U,61754,999,14180,.39515E-3,.34856E-3,0
SIT-2086,2024-199AF,2026-07-13T18:57:55.706112,15.54948104,.000807,97.2894,71.5760,148.7034,211.4702,0,U,61764,999,13856,.34448E-3,.23013E-3,0
HYPERVIEW 1G (RS66S),2024-199AP,2026-07-13T18:56:22.331040,15.84848377,.0008245,97.2814,76.0138,151.3715,208.8009,0,U,61772,999,13887,.64514E-3,.151902E-2,0
ALTAIR (RS65S),2024-199AW,2026-07-13T20:45:52.347744,15.37488674,.0011877,97.2997,64.0445,201.3504,158.7247,0,U,61779,999,14121,.17909E-3,.6517E-4,0
ASRTU-1 (AO-123),2024-199AY,2026-07-13T21:03:30.184416,15.36041963,.0012862,97.2967,63.3098,205.6294,154.4314,0,U,61781,999,13802,.13704E-3,.474E-4,0
SAMSAT-IONOSPHERE (RS75S),2024-199BB,2026-07-13T21:24:51.162912,15.60033345,.0009064,97.2904,71.4493,164.5778,195.5757,0,U,61784,999,14172,.41446E-3,.33555E-3,0
RTU MIREA 1 (RS51S),2024-199BC,2026-07-13T20:27:04.578048,15.64155435,.0009166,97.2890,72.3897,159.5271,200.6357,0,U,61785,999,13863,.44657E-3,.42466E-3,0
TEVEL2-4,2025-052D,2026-07-13T15:32:21.637824,15.35531702,.0003679,97.3876,91.0958,54.9204,305.2384,0,U,63213,999,7417,.32889E-3,.11283E-3,0
TEVEL2-5,2025-052E,2026-07-13T16:06:19.435392,15.35345429,.0003749,97.3875,91.0595,55.7946,304.3652,0,U,63214,999,7417,.32625E-3,.11125E-3,0
TEVEL2-6,2025-052F,2026-07-13T16:24:57.150720,15.35309707,.0003725,97.3876,91.0570,58.8259,301.3350,0,U,63215,999,7417,.3096E-3,.1054E-3,0
TEVEL2-1,2025-052H,2026-07-12T16:18:13.603968,15.34718554,.00044329,97.3853,89.6437,65.2904,294.8800,0,U,63217,999,7400,.3422388E-3,.11444E-3,0
TEVEL2-3,2025-052J,2026-07-13T15:37:22.010016,15.34803352,.0004147,97.3853,90.6416,64.5751,295.5921,0,U,63218,999,7415,.3202E-3,.1073E-3,0
TEVEL2-2,2025-052K,2026-07-13T15:46:45.033024,15.34751821,.0004426,97.3847,90.6260,63.9557,296.2141,0,U,63219,999,7415,.32511E-3,.10878E-3,0
OTP-2,2025-052AB,2026-07-13T16:26:12.844032,15.24325249,.0008221,97.3841,86.7216,75.1103,285.1045,0,U,63235,999,7390,.16274E-3,.3912E-4,0
TEVEL2-9,2025-052AD,2026-07-13T16:04:20.415072,15.32701936,.0007793,97.3914,89.9545,61.5220,298.6806,0,U,63237,999,7408,.31099E-3,.9754E-4,0
TEVEL2-7,2025-052AE,2026-07-13T15:36:47.539008,15.32385883,.0007866,97.3910,89.8399,61.2013,299.0017,0,U,63238,999,7407,.30172E-3,.9367E-4,0
TEVEL2-8,2025-052AF,2026-07-13T15:49:02.572320,15.32371934,.0007939,97.3909,89.8240,61.9516,298.2528,0,U,63239,999,7407,.31532E-3,.9789E-4,0
INNOSAT 16 (RS92S7),2025-155C,2026-07-13T21:27:26.324352,15.25730265,.0012471,97.4578,161.9443,92.3236,267.9430,0,U,64878,999,8474,.12991E-3,.3246E-4,0
GEOSCAN 6 (RS92S6),2025-155D,2026-07-13T20:36:10.850688,15.30638766,.0009986,97.4568,163.5252,85.9055,274.3327,0,U,64879,999,8484,.22032E-3,.6456E-4,0
GEOSCAN 1 (RS92S1),2025-155E,2026-07-13T20:24:06.536160,15.31285170,.0009934,97.4563,163.6889,86.1630,274.0747,0,U,64880,999,8485,.23765E-3,.7112E-4,0
239ALFEROV (RS61S),2025-155F,2026-07-13T20:17:23.642592,15.33646816,.0009616,97.4562,164.3384,85.8669,274.3673,0,U,64881,999,8489,.28563E-3,.9226E-4,0
GEOSCAN 2 (RS92S2),2025-155Q,2026-07-13T20:08:24.732960,15.31542647,.000909,97.4562,163.8407,76.2707,283.9546,0,U,64890,999,8486,.22213E-3,.6695E-4,0
GEOSCAN 5 (RS92S5),2025-155R,2026-07-13T18:19:49.321056,15.33950796,.0008647,97.4555,164.4035,90.4063,269.8170,0,U,64891,999,8489,.26239E-3,.8548E-4,0
GEOSCAN 4 (RS92S4),2025-155S,2026-07-13T21:00:54.964224,15.34121116,.0008588,97.4559,164.5730,90.3491,269.8736,0,U,64892,999,8491,.28623E-3,.9383E-4,0
