KUZGTU 1 (RS47S)        
1 57217U 23091AV  26194.84585590  .00007231  00000+0  24786-3 0  9995
2 57217  97.5055 259.6059 0010198  11.1243 349.0221 15.30451428168450
SONATE-2                
1 59112U 24043Q   26194.37823607  .00027473  00000+0  33131-3 0  9995
2 59112  97.5541 346.4234 0006949 111.8848 248.3148 15.60724269131979
MESAT1                  
1 60209U 24125G   26194.83795252  .00045479  00000+0  43850-3 0  9995
2 60209  97.2249  52.9825 0011058 116.9698 243.2693 15.66306567113737
OOV-CUBE (TUBSAT-30)    
1 60240U 24128F   26194.40407738  .00001077  00000+0  94341-4 0  9993
2 60240  61.9937 134.1487 0041355 139.6220 220.7954 15.02869569110055
COLIBRI-S (RS67S)       
1 61746U 24199M   26194.81884666  .00013836  00000+0  25864-3 0  9996
2 61746  97.2957  68.9315 0008829 166.9062 193.2420 15.48811104141532
HORS 3 (RS81S)          
1 61753U 24199U   26194.84392737  .00023962  00000+0  33466-3 0  9998
2 61753  97.2938  71.2466 0007009 159.9231 200.2301 15.56837831141702
HORS 4 (RS82S)          
1 61754U 24199V   26194.84630061  .00034856  00000+0  39515-3 0  9999
2 61754  97.2882  72.6365 0006881 152.1807 207.9821 15.62286650141801
SIT-2086                
1 61764U 24199AF  26194.79022808  .00023013  00000+0  34448-3 0  9991
2 61764  97.2894  71.5760 0008070 148.7034 211.4702 15.54948104138564
HYPERVIEW 1G (RS66S)    
1 61772U 24199AP  26194.78914735  .00151902  00000+0  64514-3 0  9994
2 61772  97.2814  76.0138 0008245 151.3715 208.8009 15.84848377138872
ALTAIR (RS65S)          
1 61779U 24199AW  26194.86518921  .00006517  00000+0  17909-3 0  9994
2 61779  97.2997  64.0445 0011877 201.3504 158.7247 15.37488674141213
ASRTU-1 (AO-123)        
1 61781U 24199AY  26194.87743269  .00004740  00000+0  13704-3 0  9998
2 61781  97.2967  63.3098 0012862 205.6294 154.4314 15.36041963138025
SAMSAT-IONOSPHERE (RS7*)
1 61784U 24199BB  26194.89225883  .00033555  00000+0  41446-3 0  9990
2 61784  97.2904  71.4493 0009064 164.5778 195.5757 15.60033345141728
RTU MIREA 1 (RS51S)     
1 61785U 24199BC  26194.85213632  .00042466  00000+0  44657-3 0  9994
2 61785  97.2890  72.3897 0009166 159.5271 200.6357 15.64155435138635
TEVEL2-4                
1 63213U 25052D   26194.64747266  .00011283  00000+0  32889-3 0  9990
2 63213  97.3876  91.0958 0003679  54.9204 305.2384 15.35531702 74174
TEVEL2-5                
1 63214U 25052E   26194.67105828  .00011125  00000+0  32625-3 0  9999
2 63214  97.3875  91.0595 0003749  55.7946 304.3652 15.35345429 74178
TEVEL2-6                
1 63215U 25052F   26194.68399480  .00010540  00000+0  30960-3 0  9990
2 63215  97.3876  91.0570 0003725  58.8259 301.3350 15.35309707 74179
TEVEL2-1                
1 63217U 25052H   26193.67932412  .00011444  00000+0  34224-3 0  9999
2 63217  97.3853  89.6437 0004432  65.2904 294.8800 15.34718554 74007
TEVEL2-3                
1 63218U 25052J   26194.65094919  .00010730  00000+0  32020-3 0  9999
2 63218  97.3853  90.6416 0004147  64.5751 295.5921 15.34803352 74151
TEVEL2-2                
1 63219U 25052K   26194.65746566  .00010878  00000+0  32511-3 0  9990
2 63219  97.3847  90.6260 0004426  63.9557 296.2141 15.34751821 74154
OTP-2                   
1 63235U 25052AB  26194.68487088  .00003912  00000+0  16274-3 0  9991
2 63235  97.3841  86.7216 0008221  75.1103 285.1045 15.24325249 73904
TEVEL2-9                
1 63237U 25052AD  26194.66968073  .00009754  00000+0  31099-3 0  9991
2 63237  97.3914  89.9545 0007793  61.5220 298.6806 15.32701936 74083
TEVEL2-7                
1 63238U 25052AE  26194.65055022  .00009367  00000+0  30172-3 0  9993
2 63238  97.3910  89.8399 0007866  61.2013 299.0017 15.32385883 74071
TEVEL2-8                
1 63239U 25052AF  26194.65905755  .00009789  00000+0  31532-3 0  9990
2 63239  97.3909  89.8240 0007939  61.9516 298.2528 15.32371934 74071
INNOSAT 16 (RS92S7)     
1 64878U 25155C   26194.89405468  .00003246  00000+0  12991-3 0  9996
2 64878  97.4578 161.9443 0012471  92.3236 267.9430 15.25730265 84743
GEOSCAN 6 (RS92S6)      
1 64879U 25155D   26194.85845892  .00006456  00000+0  22032-3 0  9995
2 64879  97.4568 163.5252 0009986  85.9055 274.3327 15.30638766 84840
GEOSCAN 1 (RS92S1)      
1 64880U 25155E   26194.85007565  .00007112  00000+0  23765-3 0  9998
2 64880  97.4563 163.6889 0009934  86.1630 274.0747 15.31285170 84851
239ALFEROV (RS61S)      
1 64881U 25155F   26194.84541253  .00009226  00000+0  28563-3 0  9994
2 64881  97.4562 164.3384 0009616  85.8669 274.3673 15.33646816 84899
GEOSCAN 2 (RS92S2)      
1 64890U 25155Q   26194.83917515  .00006695  00000+0  22213-3 0  9994
2 64890  97.4562 163.8407 0009090  76.2707 283.9546 15.31542647 84869
GEOSCAN 5 (RS92S5)      
1 64891U 25155R   26194.76376529  .00008548  00000+0  26239-3 0  9992
2 64891  97.4555 164.4035 0008647  90.4063 269.8170 15.33950796 84895
GEOSCAN 4 (RS92S4)      
1 64892U 25155S   26194.87563616  .00009383  00000+0  28623-3 0  9997
2 64892  97.4559 164.5730 0008588  90.3491 269.8736 15.34121116 84919
